{
    "links": {
        "self": "http://www.neowsapp.com/rest/v1/neo/3745063?api_key=iIulBulltgU6a56xZRHN4H3l9WmuAYTsLGpBGhQ2"
    },
    "id": "3745063",
    "neo_reference_id": "3745063",
    "name": "(2016 EV1)",
    "designation": "2016 EV1",
    "nasa_jpl_url": "http://ssd.jpl.nasa.gov/sbdb.cgi?sstr=3745063",
    "absolute_magnitude_h": 23.9,
    "estimated_diameter": {
        "kilometers": {
            "estimated_diameter_min": 0.04411182,
            "estimated_diameter_max": 0.0986370281
        },
        "meters": {
            "estimated_diameter_min": 44.1118199997,
            "estimated_diameter_max": 98.6370281305
        },
        "miles": {
            "estimated_diameter_min": 0.0274098057,
            "estimated_diameter_max": 0.0612901888
        },
        "feet": {
            "estimated_diameter_min": 144.7238235278,
            "estimated_diameter_max": 323.6123073718
        }
    },
    "is_potentially_hazardous_asteroid": false,
    "close_approach_data": [
        {
            "close_approach_date": "1983-07-09",
            "close_approach_date_full": "1983-Jul-09 11:25",
            "epoch_date_close_approach": 426597900000,
            "relative_velocity": {
                "kilometers_per_second": "7.5695246942",
                "kilometers_per_hour": "27250.2888992831",
                "miles_per_hour": "16932.2697885573"
            },
            "miss_distance": {
                "astronomical": "1.8962638476",
                "lunar": "737.6466367164",
                "kilometers": "283677032.558964612",
                "miles": "176268734.3423191656"
            },
            "orbiting_body": "Juptr"
        },
        {
            "close_approach_date": "1985-03-06",
            "close_approach_date_full": "1985-Mar-06 10:14",
            "epoch_date_close_approach": 478952040000,
            "relative_velocity": {
                "kilometers_per_second": "27.3224073243",
                "kilometers_per_hour": "98360.6663674598",
                "miles_per_hour": "61117.4929437141"
            },
            "miss_distance": {
                "astronomical": "0.3262076649",
                "lunar": "126.8947816461",
                "kilometers": "48799971.846713763",
                "miles": "30322896.4141574094"
            },
            "orbiting_body": "Earth"
        },
        {
            "close_approach_date": "2016-02-23",
            "close_approach_date_full": "2016-Feb-23 02:45",
            "epoch_date_close_approach": 1456195500000,
            "relative_velocity": {
                "kilometers_per_second": "19.9599358422",
                "kilometers_per_hour": "71855.7690318642",
                "miles_per_hour": "44648.3804853825"
            },
            "miss_distance": {
                "astronomical": "0.0791260255",
                "lunar": "30.7800239195",
                "kilometers": "11837084.876365685",
                "miles": "7355223.475929053"
            },
            "orbiting_body": "Earth"
        }
    ],
    "orbital_data": {
        "orbit_id": "11",
        "orbit_determination_date": "2017-08-10 06:19:44",
        "first_observation_date": "2016-02-23",
        "last_observation_date": "2016-03-15",
        "data_arc_in_days": 21,
        "observations_used": 27,
        "orbit_uncertainty": "7",
        "minimum_orbit_intersection": ".0105099",
        "jupiter_tisserand_invariant": "3.076",
        "epoch_osculation": "2459000.5",
        "eccentricity": ".7143741578266393",
        "semi_major_axis": "2.456475672429043",
        "inclination": "5.139147903999178",
        "ascending_node_longitude": "190.8177316041443",
        "orbital_period": "1406.264871079943",
        "perihelion_distance": ".7016329327159181",
        "perihelion_argument": "246.8560279435395",
        "aphelion_distance": "4.211318412142168",
        "perihelion_time": "2458805.651010983926",
        "mean_anomaly": "49.88081369899979",
        "mean_motion": ".2559972928311417",
        "equinox": "J2000",
        "orbit_class": {
            "orbit_class_type": "APO",
            "orbit_class_description": "Near-Earth asteroid orbits which cross the Earth’s orbit similar to that of 1862 Apollo",
            "orbit_class_range": "a (semi-major axis) > 1.0 AU; q (perihelion) < 1.017 AU"
        }
    },
    "is_sentry_object": false
}